<?xml version="1.0" encoding="UTF-8" standalone="yes"?>
<ndm>
    <oem id="CCSDS_OEM_VERS" version="2.0">
        <header>
            <CREATION_DATE>2024-053T05:33:17.180Z</CREATION_DATE>
            <ORIGINATOR>JSC</ORIGINATOR>
        </header>
        <body>
            <segment>
                <metadata>
                    <OBJECT_NAME>ISS</OBJECT_NAME>
                    <OBJECT_ID>1998-067-A</OBJECT_ID>
                    <CENTER_NAME>EARTH</CENTER_NAME>
                    <REF_FRAME>EME2000</REF_FRAME>
                    <TIME_SYSTEM>UTC</TIME_SYSTEM>
                    <START_TIME>2024-052T12:00:00.000Z</START_TIME>
                    <STOP_TIME>2024-067T12:00:00.000Z</STOP_TIME>
                </metadata>
                <data>
                    <COMMENT>Units are in kg and m^2</COMMENT>
                    <COMMENT>MASS=459618.00</COMMENT>
                    <COMMENT>DRAG_AREA=1693.60</COMMENT>
                    <COMMENT>DRAG_COEFF=2.00</COMMENT>
                    <COMMENT>SOLAR_RAD_AREA=0.00</COMMENT>
                    <COMMENT>SOLAR_RAD_COEFF=0.00</COMMENT>
                    <COMMENT>Orbits start at the ascending node epoch </COMMENT>
                    <COMMENT>ISS first asc. node: EPOCH = 2024-02-21T12:33:36.032 $ ORBIT = 45 $ LAN(DEG) = -165.81891</COMMENT>
                    <COMMENT>ISS last asc. node : EPOCH = 2024-03-07T11:38:05.273 $ ORBIT = 277 $ LAN(DEG) = 119.23374</COMMENT>
                    <COMMENT>Begin sequence of events</COMMENT>
                    <COMMENT>TRAJECTORY EVENT SUMMARY:</COMMENT>
                    <COMMENT></COMMENT>
                    <COMMENT>|       EVENT        |       TIG        | ORB |   DV    |   HA    |   HP    |</COMMENT>
                    <COMMENT>|                    |       GMT        |     |   M/S   |   KM    |   KM    |</COMMENT>
                    <COMMENT>|                    |                  |     |  (F/S)  |  (NM)   |  (NM)   |</COMMENT>
                    <COMMENT>=============================================================================</COMMENT>
                    <COMMENT> GMT055 Reboost (Opti  055:00:21:00.000             1.7     420.5     410.7</COMMENT>
                    <COMMENT>                                                   (5.6)   (227.1)   (221.7)</COMMENT>
                    <COMMENT></COMMENT>
                    <COMMENT> Crew-8 Launch         061:05:04:26.000             0.0     421.8     414.1</COMMENT>
                    <COMMENT>                                                   (0.0)   (227.8)   (223.6)</COMMENT>
                    <COMMENT></COMMENT>
                    <COMMENT> Crew-8 Docking        062:12:00:00.000             0.0     422.0     413.8</COMMENT>
                    <COMMENT>                                                   (0.0)   (227.8)   (223.4)</COMMENT>
                    <COMMENT></COMMENT>
                    <COMMENT>=============================================================================</COMMENT>
                    <COMMENT>End sequence of events</COMMENT>
                    <stateVector>
                        <EPOCH>2024-054T00:48:00.000Z</EPOCH>
                        <X units="km">5384.8306294921704</X>
                        <Y units="km">-3358.6082703234101</Y>
                        <Z units="km">2423.0682318758199</Z>
                        <X_DOT units="km/s">4.4316860292801401</X_DOT>
                        <Y_DOT units="km/s">3.2291579960514598</Y_DOT>
                        <Z_DOT units="km/s">-5.3526738325347898</Z_DOT>
                    </stateVector>
                    <stateVector>
                        <EPOCH>2024-054T00:52:00.000Z</EPOCH>
                        <X units="km">6239.3995657503301</X>
                        <Y units="km">-2470.7371245187101</Y>
                        <Z units="km">1065.6095479457299</Z>
                        <X_DOT units="km/s">2.64617500060697</X_DOT>
                        <Y_DOT units="km/s">4.1245365779855403</Y_DOT>
                        <Z_DOT units="km/s">-5.8901225893350801</Z_DOT>
                    </stateVector>
                    <stateVector>
                        <EPOCH>2024-054T00:56:00.000Z</EPOCH>
                        <X units="km">6639.5711595844195</X>
                        <Y units="km">-1402.93104093085</Y>
                        <Z units="km">-369.68651239077099</Z>
                        <X_DOT units="km/s">0.66835115901168995</X_DOT>
                        <Y_DOT units="km/s">4.7194114373718303</Y_DOT>
                        <Z_DOT units="km/s">-5.99734783713326</Z_DOT>
                    </stateVector>
                    <stateVector>
                        <EPOCH>2024-054T01:00:00.000Z</EPOCH>
                        <X units="km">6556.4149677470596</X>
                        <Y units="km">-232.99336474503599</Y>
                        <Z units="km">-1778.01306600209</Z>
                        <X_DOT units="km/s">-1.35678476515532</X_DOT>
                        <Y_DOT units="km/s">4.9704739940269702</Y_DOT>
                        <Z_DOT units="km/s">-5.6668589525697897</Z_DOT>
                    </stateVector>
                    <stateVector>
                        <EPOCH>2024-054T01:04:00.000Z</EPOCH>
                        <X units="km">5996.3995694720597</X>
                        <Y units="km">953.89932592894604</Y>
                        <Z units="km">-3056.6765624079098</Z>
                        <X_DOT units="km/s">-3.2811410409158501</X_DOT>
                        <Y_DOT units="km/s">4.8599695271949299</Y_DOT>
                        <Z_DOT units="km/s">-4.9236128816827804</Z_DOT>
                    </stateVector>
                    <stateVector>
                        <EPOCH>2024-054T01:08:00.000Z</EPOCH>
                        <X units="km">5000.7666567201904</X>
                        <Y units="km">2071.5090740302098</Y>
                        <Z units="km">-4112.6752273071497</Z>
                        <X_DOT units="km/s">-4.9648778774487701</X_DOT>
                        <Y_DOT units="km/s">4.3967861543630802</Y_DOT>
                        <Z_DOT units="km/s">-3.82282533645671</Z_DOT>
                    </stateVector>
                    <stateVector>
                        <EPOCH>2024-054T01:12:00.000Z</EPOCH>
                        <X units="km">3642.2895681822101</X>
                        <Y units="km">3038.8333544287502</Y>
                        <Z units="km">-4869.44283983488</Z>
                        <X_DOT units="km/s">-6.2866262728857301</X_DOT>
                        <Y_DOT units="km/s">3.61531808646044</Y_DOT>
                        <Z_DOT units="km/s">-2.4453115481407899</Z_DOT>
                    </stateVector>
                    <stateVector>
                        <EPOCH>2024-054T01:16:00.000Z</EPOCH>
                        <X units="km">2019.79950467616</X>
                        <Y units="km">3785.9057952068501</Y>
                        <Z units="km">-5272.2646246537297</Z>
                        <X_DOT units="km/s">-7.1518078022536704</X_DOT>
                        <Y_DOT units="km/s">2.5725138176413598</Y_DOT>
                        <Z_DOT units="km/s">-0.89120103014306995</Z_DOT>
                    </stateVector>
                    <stateVector>
                        <EPOCH>2024-054T01:20:00.000Z</EPOCH>
                        <X units="km">250.98389588554801</X>
                        <Y units="km">4258.7159679695596</Y>
                        <Z units="km">-5292.0567498399796</Z>
                        <X_DOT units="km/s">-7.4986966005075901</X_DOT>
                        <Y_DOT units="km/s">1.34359313550991</Y_DOT>
                        <Z_DOT units="km/s">0.72729765111901001</Z_DOT>
                    </stateVector>
                    <stateVector>
                        <EPOCH>2024-054T01:24:00.000Z</EPOCH>
                        <X units="km">-1536.00735990411</X>
                        <Y units="km">4422.97997859099</Y>
                        <Z units="km">-4927.3452565044699</Z>
                        <X_DOT units="km/s">-7.3022757718432301</X_DOT>
                        <Y_DOT units="km/s">0.01678355723984</Y_DOT>
                        <Z_DOT units="km/s">2.2936144485280399</Z_DOT>
                    </stateVector>
                    <stateVector>
                        <EPOCH>2024-054T01:28:00.000Z</EPOCH>
                        <X units="km">-3211.6113237695099</X>
                        <Y units="km">4266.5711527958802</Y>
                        <Z units="km">-4204.3800247397603</Z>
                        <X_DOT units="km/s">-6.5759178219401297</X_DOT>
                        <Y_DOT units="km/s">-1.3125175008182699</Y_DOT>
                        <Z_DOT units="km/s">3.69458384467818</Z_DOT>
                    </stateVector>
                    <stateVector>
                        <EPOCH>2024-054T01:32:00.000Z</EPOCH>
                        <X units="km">-4654.0656210633597</X>
                        <Y units="km">3800.4727444799901</Y>
                        <Z units="km">-3175.37696530413</Z>
                        <X_DOT units="km/s">-5.3709539845979304</X_DOT>
                        <Y_DOT units="km/s">-2.5482533821954898</Y_DOT>
                        <Z_DOT units="km/s">4.8282772524368598</Z_DOT>
                    </stateVector>
                    
                </data>
            </segment>
        </body>
    </oem>
</ndm>
